NORAD_CAT_ID,OBJECT_NAME,OBJECT_TYPE,EPOCH,MEAN_MOTION,ECCENTRICITY,INCLINATION,RA_OF_ASC_NODE,ARG_OF_PERICENTER,MEAN_ANOMALY,BSTAR,MEAN_MOTION_DOT,MEAN_MOTION_DDOT,TLE_LINE0,TLE_LINE1,TLE_LINE2,SEMIMAJOR_AXIS,PERIOD,APOGEE,PERIGEE,DECAYED
55757.0,STARLINK-5544,PAYLOAD,2023-03-20 14:00:01,15.71737276,0.0003661,69.993,107.9074,275.4143,128.7014,-0.007907,-0.00920414,0.0,0 STARLINK-5544,1 55757U 23028S   23079.58334491 -.00920414  00000-0 -79070-2 0  9999,2 55757  69.9930 107.9074 0003661 275.4143 128.7014 15.71737276  3313,6732.069,91.618,356.398,351.469,0.0
55757.0,STARLINK-5544,PAYLOAD,2023-03-20 22:00:01,15.71038565,0.0003403,69.9935,106.9682,266.8321,222.4586,-0.0073773,-0.00841655,0.0,0 STARLINK-5544,1 55757U 23028S   23079.91668981 -.00841655  00000-0 -73773-2 0  9993,2 55757  69.9935 106.9682 0003403 266.8321 222.4586 15.71038565  1306,6734.065,91.659,358.221,353.638,0.0
55757.0,STARLINK-5544,PAYLOAD,2023-03-21 06:00:00,15.70268109,0.0003358,69.9951,106.0298,271.5352,302.0274,-0.0043082,-0.00495865,0.0,0 STARLINK-5544,1 55757U 23028S   23080.25001157 -.00495865  00000-0 -43082-2 0  9996,2 55757  69.9951 106.0298 0003358 271.5352 302.0274 15.70268109  3415,6736.267,91.704,360.394,355.87,0.0
55757.0,STARLINK-5544,PAYLOAD,2023-03-21 14:00:01,15.69920751,0.0003438,69.9965,105.0918,272.9614,24.1905,-8.8002e-06,-1.271e-05,0.0,0 STARLINK-5544,1 55757U 23028S   23080.58335648 -.00001271  00000-0 -88002-5 0  9995,2 55757  69.9965 105.0918 0003438 272.9614  24.1905 15.69920751  3467,6737.261,91.724,361.442,356.809,0.0
55757.0,STARLINK-5544,PAYLOAD,2023-03-21 22:00:00,15.69872205,0.0003428,69.9987,104.1545,265.2056,115.2289,0.00088166,0.00106931,0.0,0 STARLINK-5544,1 55757U 23028S   23080.91667824  .00106931  00000-0  88166-3 0  9992,2 55757  69.9987 104.1545 0003428 265.2056 115.2289 15.69872205  1309,6737.4,91.727,361.574,356.955,0.0
55757.0,STARLINK-5544,PAYLOAD,2023-03-22 22:00:00,15.69848774,0.0003342,70.0004,101.3426,267.903,2.5495,0.0011706,0.00142512,0.0,0 STARLINK-5544,1 55757U 23028S   23081.91667824  .00142512  00000-0  11706-2 0  9993,2 55757  70.0004 101.3426 0003342 267.9030   2.5495 15.69848774  3678,6737.467,91.729,361.583,357.08,0.0
55757.0,STARLINK-5544,PAYLOAD,2023-03-23 06:00:00,15.69951685,0.000342,70.0009,100.4053,271.3499,82.4121,-0.00057625,-0.00069015,0.0,0 STARLINK-5544,1 55757U 23028S   23082.25001157 -.00069015  00000-0 -57625-3 0  9991,2 55757  70.0009 100.4053 0003420 271.3499  82.4121 15.69951685  3730,6737.172,91.723,361.341,356.733,0.0
55757.0,STARLINK-5544,PAYLOAD,2023-03-23 14:00:01,15.69927858,0.0003515,70.0006,99.468,272.1865,164.9775,-0.0001137,-0.00013864,0.0,0 STARLINK-5544,1 55757U 23028S   23082.58335648 -.00013864  00000-0 -11370-3 0  9990,2 55757  70.0006  99.4680 0003515 272.1865 164.9775 15.69927858  1308,6737.24,91.724,361.474,356.737,0.0
55757.0,STARLINK-5544,PAYLOAD,2023-03-24 17:00:11,15.70071244,0.0003649,70.0006,96.3052,268.5485,45.4617,-0.0051064,-0.00577401,0.0,0 STARLINK-5544,1 55757U 23028S   23083.70846065 -.00577401  00000-0 -51064-2 0  9990,2 55757  70.0006  96.3052 0003649 268.5485  45.4617 15.70071244  3954,6736.83,91.716,361.153,356.237,0.0
55757.0,STARLINK-5544,PAYLOAD,2023-03-24 22:00:01,15.69966019,0.0003614,70.0008,95.72,269.2458,141.2281,-0.0085374,-0.0093641,0.0,0 STARLINK-5544,1 55757U 23028S   23083.91668981 -.00936410  00000-0 -85374-2 0  9992,2 55757  70.0008  95.7200 0003614 269.2458 141.2281 15.69966019  1304,6737.131,91.722,361.431,356.561,0.0
55757.0,STARLINK-5544,PAYLOAD,2023-03-25 03:54:15,15.69717962,0.0002802,70.0007,95.0284,252.5151,107.5738,-0.00086055,-0.00101565,0.0,0 STARLINK-5544,1 55757U 23028S   23084.16268015 -.00101565  00000-0 -86055-3 0  9997,2 55757  70.0007  95.0284 0002802 252.5151 107.5738 15.69717962  4037,6737.841,91.736,361.594,357.818,0.0
55757.0,STARLINK-5544,PAYLOAD,2023-03-25 06:57:49,15.69629377,0.000272,70.0007,94.6705,250.739,109.3511,-0.0010753,-0.00126026,0.0,0 STARLINK-5544,1 55757U 23028S   23084.29015281 -.00126026  00000-0 -10753-2 0  9996,2 55757  70.0007  94.6705 0002720 250.7390 109.3511 15.69629377  4057,6738.094,91.741,361.792,358.127,0.0
55757.0,STARLINK-5544,PAYLOAD,2023-03-25 13:04:52,15.69666378,0.0005483,70.0008,93.954,281.1675,78.8904,-0.00036845,-0.00043844,0.0,0 STARLINK-5544,1 55757U 23028S   23084.54505595 -.00043844  00000-0 -36845-3 0  9993,2 55757  70.0008  93.9540 0005483 281.1675  78.8904 15.69666378  4092,6737.989,91.739,363.548,356.159,0.0
55757.0,STARLINK-5544,PAYLOAD,2023-03-26 01:19:19,15.68718436,0.0006051,70.001,92.5222,278.4879,81.563,-0.0044737,-0.0048413,0.0,0 STARLINK-5544,1 55757U 23028S   23085.05508452 -.00484130  00000-0 -44737-2 0  9990,2 55757  70.0010  92.5222 0006051 278.4879  81.5630 15.68718436  4172,6740.703,91.795,366.647,358.489,0.0
55757.0,STARLINK-5544,PAYLOAD,2023-03-26 14:00:01,15.66701609,0.0003449,70.0008,91.0462,275.9225,181.4179,-0.010157,-0.00970534,0.0,0 STARLINK-5544,1 55757U 23028S   23085.58334491 -.00970534  00000-0 -10157-1 0  9994,2 55757  70.0008  91.0462 0003449 275.9225 181.4179 15.66701609  4253,6746.486,91.913,370.678,366.025,0.0
55757.0,STARLINK-5544,PAYLOAD,2023-03-26 22:00:01,15.66010333,0.0003435,70.0011,90.1141,267.2557,269.1921,-0.0095085,-0.00890859,0.0,0 STARLINK-5544,1 55757U 23028S   23085.91668981 -.00890859  00000-0 -95085-2 0  9990,2 55757  70.0011  90.1141 0003435 267.2557 269.1921 15.66010333  1307,6748.472,91.953,372.655,368.019,0.0
55757.0,STARLINK-5544,PAYLOAD,2023-03-27 06:00:00,15.65351249,0.000357,70.0015,89.183,269.4438,345.2035,-0.0099407,-0.00905667,0.0,0 STARLINK-5544,1 55757U 23028S   23086.25001157 -.00905667  00000-0 -99407-2 0  9990,2 55757  70.0015  89.1830 0003570 269.4438 345.2035 15.65351249  4359,6750.366,91.992,374.641,369.821,0.0
55757.0,STARLINK-5544,PAYLOAD,2023-03-27 14:00:01,15.64739473,0.0003659,70.0012,88.2525,270.6912,61.4082,-0.010874,-0.00961209,0.0,0 STARLINK-5544,1 55757U 23028S   23086.58334491 -.00961209  00000-0 -10874-1 0  9990,2 55757  70.0012  88.2525 0003659 270.6912  61.4082 15.64739473  1305,6752.125,92.028,376.461,371.52,0.0
55757.0,STARLINK-5544,PAYLOAD,2023-03-27 22:00:00,15.64047072,0.0003945,70.0013,87.3234,266.6506,142.1414,-0.01014,-0.0087956,0.0,0 STARLINK-5544,1 55757U 23028S   23086.91667824 -.00879560  00000-0 -10140-1 0  9990,2 55757  70.0013  87.3234 0003945 266.6506 142.1414 15.64047072  1308,6754.118,92.069,378.647,373.318,0.0
55757.0,STARLINK-5544,PAYLOAD,2023-03-28 06:00:00,15.63383732,0.0003548,70.0011,86.3948,272.1251,212.5859,-0.010472,-0.00884263,0.0,0 STARLINK-5544,1 55757U 23028S   23087.25001157 -.00884263  00000-0 -10472-1 0  9993,2 55757  70.0011  86.3948 0003548 272.1251 212.5859 15.63383732  4511,6756.028,92.108,380.29,375.496,0.0
55757.0,STARLINK-5544,PAYLOAD,2023-03-28 14:00:01,15.62795631,0.000339,70.0009,85.4673,271.8667,287.9459,-0.012049,-0.00983746,0.0,0 STARLINK-5544,1 55757U 23028S   23087.58334491 -.00983746  00000-0 -12049-1 0  9997,2 55757  70.0009  85.4673 0003390 271.8667 287.9459 15.62795631  1305,6757.723,92.143,381.879,377.297,0.0
55757.0,STARLINK-5544,PAYLOAD,2023-03-28 22:00:00,15.62103088,0.0003441,70.0012,84.5405,263.5536,10.6083,-0.011238,-0.00900861,0.0,0 STARLINK-5544,1 55757U 23028S   23087.91667824 -.00900861  00000-0 -11238-1 0  9999,2 55757  70.0012  84.5405 0003441 263.5536  10.6083 15.62103088  4612,6759.72,92.183,383.911,379.259,0.0
55757.0,STARLINK-5544,PAYLOAD,2023-03-29 14:00:01,15.6082572,0.0003351,70.0009,82.6898,271.0642,149.4297,-0.012728,-0.00964406,0.0,0 STARLINK-5544,1 55757U 23028S   23088.58334491 -.00964406  00000-0 -12728-1 0  9994,2 55757  70.0009  82.6898 0003351 271.0642 149.4297 15.60825720  4727,6763.408,92.259,387.539,383.006,0.0
55757.0,STARLINK-5544,PAYLOAD,2023-03-29 22:00:00,15.60154896,0.0003281,70.0011,81.7658,265.8893,226.5987,-0.012328,-0.00915032,0.0,0 STARLINK-5544,1 55757U 23028S   23088.91667824 -.00915032  00000-0 -12328-1 0  9997,2 55757  70.0011  81.7658 0003281 265.8893 226.5987 15.60154896  1308,6765.346,92.299,389.431,384.992,0.0
55757.0,STARLINK-5544,PAYLOAD,2023-03-30 06:00:00,15.59462115,0.0003228,70.001,80.8426,272.6315,291.0895,-0.011919,-0.00865982,0.0,0 STARLINK-5544,1 55757U 23028S   23089.25001157 -.00865982  00000-0 -11919-1 0  9999,2 55757  70.0010  80.8426 0003228 272.6315 291.0895 15.59462115  4825,6767.35,92.34,391.399,387.03,0.0
55757.0,STARLINK-5544,PAYLOAD,2023-03-30 22:00:00,15.58202063,0.0003433,70.0012,78.9991,266.3626,77.4147,-0.013398,-0.00922465,0.0,0 STARLINK-5544,1 55757U 23028S   23089.91667824 -.00922465  00000-0 -13398-1 0  9994,2 55757  70.0012  78.9991 0003433 266.3626  77.4147 15.58202063  4936,6770.998,92.414,395.187,390.538,0.0
55757.0,STARLINK-5544,PAYLOAD,2023-03-31 22:00:00,15.56246453,0.0003295,70.0008,76.2404,264.4316,283.593,-0.014431,-0.00923167,0.0,0 STARLINK-5544,1 55757U 23028S   23090.91667824 -.00923167  00000-0 -14431-1 0  9995,2 55757  70.0008  76.2404 0003295 264.4316 283.5930 15.56246453  5088,6776.669,92.53,400.767,396.301,0.0
55757.0,STARLINK-5544,PAYLOAD,2023-04-01 14:00:01,15.54942378,0.0003277,70.0006,74.4055,270.9503,49.3355,-0.015559,-0.00946029,0.0,0 STARLINK-5544,1 55757U 23028S   23091.58334491 -.00946029  00000-0 -15559-1 0  9994,2 55757  70.0006  74.4055 0003277 270.9503  49.3355 15.54942378  1305,6780.457,92.608,404.544,400.1,0.0
55757.0,STARLINK-5544,PAYLOAD,2023-04-01 22:00:00,15.54292302,0.0003436,70.0008,73.4899,267.7749,117.4569,-0.015536,-0.0092452,0.0,0 STARLINK-5544,1 55757U 23028S   23091.91667824 -.00924520  00000-0 -15536-1 0  9997,2 55757  70.0008  73.4899 0003436 267.7749 117.4569 15.54292302  5241,6782.348,92.647,406.543,401.882,0.0
55757.0,STARLINK-5544,PAYLOAD,2023-04-02 14:00:01,15.52983962,0.0003365,70.0003,71.6603,272.1236,240.6777,-0.016639,-0.00942145,0.0,0 STARLINK-5544,1 55757U 23028S   23092.58334491 -.00942145  00000-0 -16639-1 0  9990,2 55757  70.0003  71.6603 0003365 272.1236 240.6777 15.52983962  1301,6786.156,92.725,410.305,405.738,0.0
